{
    "links": {
        "self": "http://www.neowsapp.com/rest/v1/neo/3592017?api_key=iIulBulltgU6a56xZRHN4H3l9WmuAYTsLGpBGhQ2"
    },
    "id": "3592017",
    "neo_reference_id": "3592017",
    "name": "(2012 AX)",
    "designation": "2012 AX",
    "nasa_jpl_url": "http://ssd.jpl.nasa.gov/sbdb.cgi?sstr=3592017",
    "absolute_magnitude_h": 23.8,
    "estimated_diameter": {
        "kilometers": {
            "estimated_diameter_min": 0.046190746,
            "estimated_diameter_max": 0.1032856481
        },
        "meters": {
            "estimated_diameter_min": 46.1907460282,
            "estimated_diameter_max": 103.2856480504
        },
        "miles": {
            "estimated_diameter_min": 0.0287015901,
            "estimated_diameter_max": 0.0641787064
        },
        "feet": {
            "estimated_diameter_min": 151.544447199,
            "estimated_diameter_max": 338.8636855496
        }
    },
    "is_potentially_hazardous_asteroid": false,
    "close_approach_data": [
        {
            "close_approach_date": "2009-03-14",
            "close_approach_date_full": "2009-Mar-14 19:14",
            "epoch_date_close_approach": 1237058040000,
            "relative_velocity": {
                "kilometers_per_second": "12.9972159323",
                "kilometers_per_hour": "46789.9773563794",
                "miles_per_hour": "29073.4723190236"
            },
            "miss_distance": {
                "astronomical": "0.2581775777",
                "lunar": "100.4310777253",
                "kilometers": "38622815.705679499",
                "miles": "23999104.8262311262"
            },
            "orbiting_body": "Earth"
        },
        {
            "close_approach_date": "2012-01-20",
            "close_approach_date_full": "2012-Jan-20 05:18",
            "epoch_date_close_approach": 1327036680000,
            "relative_velocity": {
                "kilometers_per_second": "7.1872550181",
                "kilometers_per_hour": "25874.1180653211",
                "miles_per_hour": "16077.170750088"
            },
            "miss_distance": {
                "astronomical": "0.0747652521",
                "lunar": "29.0836830669",
                "kilometers": "11184722.464173027",
                "miles": "6949864.2697486926"
            },
            "orbiting_body": "Earth"
        },
        {
            "close_approach_date": "2014-12-22",
            "close_approach_date_full": "2014-Dec-22 22:45",
            "epoch_date_close_approach": 1419288300000,
            "relative_velocity": {
                "kilometers_per_second": "14.720137616",
                "kilometers_per_hour": "52992.4954176842",
                "miles_per_hour": "32927.4758332827"
            },
            "miss_distance": {
                "astronomical": "0.2624912048",
                "lunar": "102.1090786672",
                "kilometers": "39268125.131813776",
                "miles": "24400081.5100950688"
            },
            "orbiting_body": "Earth"
        }
    ],
    "orbital_data": {
        "orbit_id": "9",
        "orbit_determination_date": "2017-04-06 08:51:33",
        "first_observation_date": "2012-01-02",
        "last_observation_date": "2012-03-17",
        "data_arc_in_days": 75,
        "observations_used": 29,
        "orbit_uncertainty": "6",
        "minimum_orbit_intersection": ".070111",
        "jupiter_tisserand_invariant": "3.604",
        "epoch_osculation": "2459000.5",
        "eccentricity": ".5072172291978346",
        "semi_major_axis": "2.058095053835798",
        "inclination": "7.141277129330958",
        "ascending_node_longitude": "91.05321072311806",
        "orbital_period": "1078.441446535885",
        "perihelion_distance": "1.014193783203436",
        "perihelion_argument": "42.2660676396054",
        "aphelion_distance": "3.10199632446816",
        "perihelion_time": "2459196.879791489197",
        "mean_anomaly": "294.4454674259789",
        "mean_motion": ".3338150635404211",
        "equinox": "J2000",
        "orbit_class": {
            "orbit_class_type": "APO",
            "orbit_class_description": "Near-Earth asteroid orbits which cross the Earth’s orbit similar to that of 1862 Apollo",
            "orbit_class_range": "a (semi-major axis) > 1.0 AU; q (perihelion) < 1.017 AU"
        }
    },
    "is_sentry_object": false
}